DELTA 2 R/B             
1 25876U 99041E   26064.97292529  .00001319  00000+0  25026-3 0  9995
2 25876  51.7640 316.1258 0502360 337.4654  20.4891 14.11825391362502
HELIOS 1B               
1 25977U 99064A   26064.67829743  .00003067  00000+0  34317-3 0  9998
2 25977  98.1698 326.8039 0002507  80.2123 279.9376 14.87680091684661
TERRA                   
1 25994U 99068A   26064.94669566  .00000536  00000+0  11832-3 0  9991
2 25994  97.9600 118.5243 0002477 160.3815 251.3811 14.61009723394538
SL-16 R/B               
1 26070U 00006B   26064.56143885  .00000128  00000+0  89070-4 0  9997
2 26070  71.0012 106.5183 0017079 195.9469 164.1119 14.15825328347971
TITAN 4B R/B            
1 26474U 00047B   26064.98605308  .00004868  00000+0  30594-3 0  9990
2 26474  67.9892  50.9239 0038249  39.7616 320.6325 15.09517041392358
ENVISAT                 
1 27386U 02009A   26064.84712543  .00000197  00000+0  77814-4 0  9996
2 27386  98.3722  18.5361 0001332  84.3208 283.9722 14.39035320258623
IDEFIX & ARIANE 42P R/B 
1 27422U 02021B   26064.72018144  .00000417  00000+0  17513-3 0  9998
2 27422  98.5866   3.3740 0011343 194.0725 166.0144 14.31022919243450
AQUA                    
1 27424U 02022A   26064.92331410  .00001342  00000+0  27765-3 0  9995
2 27424  98.4170  32.2197 0000599  63.3663  13.6411 14.61965399268188
CZ-4B R/B               
1 27432U 02024C   26064.76753016  .00000073  00000+0  60568-4 0  9997
2 27432  98.8846 118.1938 0050667  35.2596  74.8182 14.14546933228684
MIDORI II (ADEOS-II)    
1 27597U 02056A   26064.88343650  .00000377  00000+0  16594-3 0  9992
2 27597  98.7765  23.3348 0001730  47.9802 312.1527 14.29281347209753
H-2A R/B                
1 27601U 02056E   26064.86781072  .00000386  00000+0  14985-3 0  9992
2 27601  98.3197  25.3790 0070269 172.0112 242.7391 14.33757912213566
CZ-4B R/B               
1 28059U 03049C   26064.94512384  .00000485  00000+0  12293-3 0  9990
2 28059  98.6876  59.7030 0047125 242.5758 117.0641 14.55015715186050
CZ-2C R/B               
1 28222U 04012C   26064.70687254  .00060471  00000+0  63753-3 0  9994
2 28222  97.7239 129.6238 0013260 325.7396  34.3005 15.63957570203652
SL-16 R/B               
1 28353U 04021B   26064.92138566 -.00000203  00000+0 -80854-4 0  9991
2 28353  70.9992 240.4008 0003822  16.5605 343.5641 14.14599085122305
CZ-4B R/B               
1 28415U 04035C   26064.98264374  .00009280  00000+0  32749-3 0  9999
2 28415  97.3498  99.2692 0031378 345.0282  15.0026 15.28982464179342
CZ-2C R/B               
1 28480U 04046B   26064.69914945  .00000160  00000+0  74447-4 0  9997
2 28480  98.1986 339.9313 0139651 166.2060 194.3000 14.26990485107937
ARIANE 5 R/B            
1 28499U 04049H   26064.92740592  .00000939  00000+0  10979-3 0  9994
2 28499  98.2620 233.2437 0084204   4.1334 356.0557 14.85257079145232
