[{"OBJECT_NAME":"DELTA 2 R/B","OBJECT_ID":"1999-041E","EPOCH":"2026-03-05T23:21:00.745056","MEAN_MOTION":14.11825391,"ECCENTRICITY":0.05023607,"INCLINATION":51.764,"RA_OF_ASC_NODE":316.1258,"ARG_OF_PERICENTER":337.4654,"MEAN_ANOMALY":20.4891,"EPHEMERIS_TYPE":0,"CLASSIFICATION_TYPE":"U","NORAD_CAT_ID":25876,"ELEMENT_SET_NO":999,"REV_AT_EPOCH":36250,"BSTAR":0.0002502623,"MEAN_MOTION_DOT":1.319e-5,"MEAN_MOTION_DDOT":0},{"OBJECT_NAME":"HELIOS 1B","OBJECT_ID":"1999-064A","EPOCH":"2026-03-05T16:16:44.897952","MEAN_MOTION":14.87680091,"ECCENTRICITY":0.00025072,"INCLINATION":98.1698,"RA_OF_ASC_NODE":326.8039,"ARG_OF_PERICENTER":80.2123,"MEAN_ANOMALY":279.9376,"EPHEMERIS_TYPE":0,"CLASSIFICATION_TYPE":"U","NORAD_CAT_ID":25977,"ELEMENT_SET_NO":999,"REV_AT_EPOCH":68466,"BSTAR":0.00034317335,"MEAN_MOTION_DOT":3.067e-5,"MEAN_MOTION_DDOT":0},{"OBJECT_NAME":"TERRA","OBJECT_ID":"1999-068A","EPOCH":"2026-03-05T22:43:14.505024","MEAN_MOTION":14.61009723,"ECCENTRICITY":0.00024773,"INCLINATION":97.96,"RA_OF_ASC_NODE":118.5243,"ARG_OF_PERICENTER":160.3815,"MEAN_ANOMALY":251.3811,"EPHEMERIS_TYPE":0,"CLASSIFICATION_TYPE":"U","NORAD_CAT_ID":25994,"ELEMENT_SET_NO":999,"REV_AT_EPOCH":39453,"BSTAR":0.00011832207,"MEAN_MOTION_DOT":5.36e-6,"MEAN_MOTION_DDOT":0},{"OBJECT_NAME":"SL-16 R/B","OBJECT_ID":"2000-006B","EPOCH":"2026-03-05T13:28:28.316640","MEAN_MOTION":14.15825328,"ECCENTRICITY":0.00170793,"INCLINATION":71.0012,"RA_OF_ASC_NODE":106.5183,"ARG_OF_PERICENTER":195.9469,"MEAN_ANOMALY":164.1119,"EPHEMERIS_TYPE":0,"CLASSIFICATION_TYPE":"U","NORAD_CAT_ID":26070,"ELEMENT_SET_NO":999,"REV_AT_EPOCH":34797,"BSTAR":8.9069923e-5,"MEAN_MOTION_DOT":1.28e-6,"MEAN_MOTION_DDOT":0},{"OBJECT_NAME":"TITAN 4B R/B","OBJECT_ID":"2000-047B","EPOCH":"2026-03-05T23:39:54.986112","MEAN_MOTION":15.09517041,"ECCENTRICITY":0.0038249,"INCLINATION":67.9892,"RA_OF_ASC_NODE":50.9239,"ARG_OF_PERICENTER":39.7616,"MEAN_ANOMALY":320.6325,"EPHEMERIS_TYPE":0,"CLASSIFICATION_TYPE":"U","NORAD_CAT_ID":26474,"ELEMENT_SET_NO":999,"REV_AT_EPOCH":39235,"BSTAR":0.00030594464,"MEAN_MOTION_DOT":4.868e-5,"MEAN_MOTION_DDOT":0},{"OBJECT_NAME":"ENVISAT","OBJECT_ID":"2002-009A","EPOCH":"2026-03-05T20:19:51.637152","MEAN_MOTION":14.3903532,"ECCENTRICITY":0.00013322,"INCLINATION":98.3722,"RA_OF_ASC_NODE":18.5361,"ARG_OF_PERICENTER":84.3208,"MEAN_ANOMALY":283.9722,"EPHEMERIS_TYPE":0,"CLASSIFICATION_TYPE":"U","NORAD_CAT_ID":27386,"ELEMENT_SET_NO":999,"REV_AT_EPOCH":25862,"BSTAR":7.7813637e-5,"MEAN_MOTION_DOT":1.97e-6,"MEAN_MOTION_DDOT":0},{"OBJECT_NAME":"IDEFIX & ARIANE 42P R/B","OBJECT_ID":"2002-021B","EPOCH":"2026-03-05T17:17:03.676416","MEAN_MOTION":14.31022919,"ECCENTRICITY":0.0011343,"INCLINATION":98.5866,"RA_OF_ASC_NODE":3.374,"ARG_OF_PERICENTER":194.0725,"MEAN_ANOMALY":166.0144,"EPHEMERIS_TYPE":0,"CLASSIFICATION_TYPE":"U","NORAD_CAT_ID":27422,"ELEMENT_SET_NO":999,"REV_AT_EPOCH":24345,"BSTAR":0.00017513338,"MEAN_MOTION_DOT":4.17e-6,"MEAN_MOTION_DDOT":0},{"OBJECT_NAME":"AQUA","OBJECT_ID":"2002-022A","EPOCH":"2026-03-05T22:09:34.338240","MEAN_MOTION":14.61965399,"ECCENTRICITY":5.994e-5,"INCLINATION":98.417,"RA_OF_ASC_NODE":32.2197,"ARG_OF_PERICENTER":63.3663,"MEAN_ANOMALY":13.6411,"EPHEMERIS_TYPE":0,"CLASSIFICATION_TYPE":"U","NORAD_CAT_ID":27424,"ELEMENT_SET_NO":999,"REV_AT_EPOCH":26818,"BSTAR":0.000277648,"MEAN_MOTION_DOT":1.342e-5,"MEAN_MOTION_DDOT":0},{"OBJECT_NAME":"CZ-4B R/B","OBJECT_ID":"2002-024C","EPOCH":"2026-03-05T18:25:14.605824","MEAN_MOTION":14.14546933,"ECCENTRICITY":0.00506675,"INCLINATION":98.8846,"RA_OF_ASC_NODE":118.1938,"ARG_OF_PERICENTER":35.2596,"MEAN_ANOMALY":74.8182,"EPHEMERIS_TYPE":0,"CLASSIFICATION_TYPE":"U","NORAD_CAT_ID":27432,"ELEMENT_SET_NO":999,"REV_AT_EPOCH":22868,"BSTAR":6.0567933e-5,"MEAN_MOTION_DOT":7.3e-7,"MEAN_MOTION_DDOT":0},{"OBJECT_NAME":"MIDORI II (ADEOS-II)","OBJECT_ID":"2002-056A","EPOCH":"2026-03-05T21:12:08.913600","MEAN_MOTION":14.29281347,"ECCENTRICITY":0.00017301,"INCLINATION":98.7765,"RA_OF_ASC_NODE":23.3348,"ARG_OF_PERICENTER":47.9802,"MEAN_ANOMALY":312.1527,"EPHEMERIS_TYPE":0,"CLASSIFICATION_TYPE":"U","NORAD_CAT_ID":27597,"ELEMENT_SET_NO":999,"REV_AT_EPOCH":20975,"BSTAR":0.00016594295,"MEAN_MOTION_DOT":3.77e-6,"MEAN_MOTION_DDOT":0},{"OBJECT_NAME":"H-2A R/B","OBJECT_ID":"2002-056E","EPOCH":"2026-03-05T20:49:38.846208","MEAN_MOTION":14.33757912,"ECCENTRICITY":0.00702698,"INCLINATION":98.3197,"RA_OF_ASC_NODE":25.379,"ARG_OF_PERICENTER":172.0112,"MEAN_ANOMALY":242.7391,"EPHEMERIS_TYPE":0,"CLASSIFICATION_TYPE":"U","NORAD_CAT_ID":27601,"ELEMENT_SET_NO":999,"REV_AT_EPOCH":21356,"BSTAR":0.00014984844,"MEAN_MOTION_DOT":3.86e-6,"MEAN_MOTION_DDOT":0},{"OBJECT_NAME":"CZ-4B R/B","OBJECT_ID":"2003-049C","EPOCH":"2026-03-05T22:40:58.699776","MEAN_MOTION":14.55015715,"ECCENTRICITY":0.00471251,"INCLINATION":98.6876,"RA_OF_ASC_NODE":59.703,"ARG_OF_PERICENTER":242.5758,"MEAN_ANOMALY":117.0641,"EPHEMERIS_TYPE":0,"CLASSIFICATION_TYPE":"U","NORAD_CAT_ID":28059,"ELEMENT_SET_NO":999,"REV_AT_EPOCH":18605,"BSTAR":0.00012292925,"MEAN_MOTION_DOT":4.85e-6,"MEAN_MOTION_DDOT":0},{"OBJECT_NAME":"CZ-2C R/B","OBJECT_ID":"2004-012C","EPOCH":"2026-03-05T16:57:53.787456","MEAN_MOTION":15.6395757,"ECCENTRICITY":0.00132604,"INCLINATION":97.7239,"RA_OF_ASC_NODE":129.6238,"ARG_OF_PERICENTER":325.7396,"MEAN_ANOMALY":34.3005,"EPHEMERIS_TYPE":0,"CLASSIFICATION_TYPE":"U","NORAD_CAT_ID":28222,"ELEMENT_SET_NO":999,"REV_AT_EPOCH":20365,"BSTAR":0.00063752945,"MEAN_MOTION_DOT":0.00060471,"MEAN_MOTION_DDOT":0},{"OBJECT_NAME":"SL-16 R/B","OBJECT_ID":"2004-021B","EPOCH":"2026-03-05T22:06:47.721024","MEAN_MOTION":14.14599085,"ECCENTRICITY":0.00038228,"INCLINATION":70.9992,"RA_OF_ASC_NODE":240.4008,"ARG_OF_PERICENTER":16.5605,"MEAN_ANOMALY":343.5641,"EPHEMERIS_TYPE":0,"CLASSIFICATION_TYPE":"U","NORAD_CAT_ID":28353,"ELEMENT_SET_NO":999,"REV_AT_EPOCH":12230,"BSTAR":-8.0853622e-5,"MEAN_MOTION_DOT":-2.03e-6,"MEAN_MOTION_DDOT":0},{"OBJECT_NAME":"CZ-4B R/B","OBJECT_ID":"2004-035C","EPOCH":"2026-03-05T23:35:00.419136","MEAN_MOTION":15.28982464,"ECCENTRICITY":0.00313783,"INCLINATION":97.3498,"RA_OF_ASC_NODE":99.2692,"ARG_OF_PERICENTER":345.0282,"MEAN_ANOMALY":15.0026,"EPHEMERIS_TYPE":0,"CLASSIFICATION_TYPE":"U","NORAD_CAT_ID":28415,"ELEMENT_SET_NO":999,"REV_AT_EPOCH":17934,"BSTAR":0.00032748923,"MEAN_MOTION_DOT":9.28e-5,"MEAN_MOTION_DDOT":0},{"OBJECT_NAME":"CZ-2C R/B","OBJECT_ID":"2004-046B","EPOCH":"2026-03-05T16:46:46.512480","MEAN_MOTION":14.26990485,"ECCENTRICITY":0.01396514,"INCLINATION":98.1986,"RA_OF_ASC_NODE":339.9313,"ARG_OF_PERICENTER":166.206,"MEAN_ANOMALY":194.3,"EPHEMERIS_TYPE":0,"CLASSIFICATION_TYPE":"U","NORAD_CAT_ID":28480,"ELEMENT_SET_NO":999,"REV_AT_EPOCH":10793,"BSTAR":7.444694e-5,"MEAN_MOTION_DOT":1.6e-6,"MEAN_MOTION_DDOT":0},{"OBJECT_NAME":"ARIANE 5 R/B","OBJECT_ID":"2004-049H","EPOCH":"2026-03-05T22:15:27.871488","MEAN_MOTION":14.85257079,"ECCENTRICITY":0.00842046,"INCLINATION":98.262,"RA_OF_ASC_NODE":233.2437,"ARG_OF_PERICENTER":4.1334,"MEAN_ANOMALY":356.0557,"EPHEMERIS_TYPE":0,"CLASSIFICATION_TYPE":"U","NORAD_CAT_ID":28499,"ELEMENT_SET_NO":999,"REV_AT_EPOCH":14523,"BSTAR":0.0001097913,"MEAN_MOTION_DOT":9.39e-6,"MEAN_MOTION_DDOT":0}]
